NORAD_CAT_ID,OBJECT_NAME,OBJECT_TYPE,EPOCH,MEAN_MOTION,ECCENTRICITY,INCLINATION,RA_OF_ASC_NODE,ARG_OF_PERICENTER,MEAN_ANOMALY,BSTAR,MEAN_MOTION_DOT,MEAN_MOTION_DDOT,TLE_LINE0,TLE_LINE1,TLE_LINE2,SEMIMAJOR_AXIS,PERIOD,APOGEE,PERIGEE,DECAYED
53821.0,STARLINK-4752,PAYLOAD,2023-01-21 09:00:36,15.73251417,0.0001429,53.2156,3.5237,2.3951,357.7075,0.0003626,0.00050689,0.0,0 STARLINK-4752,1 53821U 22114D   23021.37541983  .00050689  00000-0  36260-3 0  9995,2 53821  53.2156   3.5237 0001429   2.3951 357.7075 15.73251417 20146,6727.749,91.53,350.575,348.652,0.0
53821.0,STARLINK-4752,PAYLOAD,2023-01-22 04:49:50,15.73255948,7.87e-05,53.2167,359.4332,56.3833,303.7262,0.00039041,0.0005466,0.0,0 STARLINK-4752,1 53821U 22114D   23022.20127963  .00054660  00000-0  39041-3 0  9999,2 53821  53.2167 359.4332 0000787  56.3833 303.7262 15.73255948 20277,6727.736,91.53,350.13,349.071,0.0
53821.0,STARLINK-4752,PAYLOAD,2023-01-22 15:30:12,15.73203113,5.99e-05,53.2165,357.2326,66.3202,293.7881,0.00044828,0.00062772,0.0,0 STARLINK-4752,1 53821U 22114D   23022.64598231  .00062772  00000-0  44828-3 0  9999,2 53821  53.2165 357.2326 0000599  66.3202 293.7881 15.73203113 20346,6727.886,91.533,350.154,349.348,0.0
53821.0,STARLINK-4752,PAYLOAD,2023-01-22 23:07:37,15.73205835,7.31e-05,53.2158,355.6627,63.4301,296.6794,0.00026236,0.00036369,0.0,0 STARLINK-4752,1 53821U 22114D   23022.96362424  .00036369  00000-0  26236-3 0  9993,2 53821  53.2158 355.6627 0000731  63.4301 296.6794 15.73205835 20393,6727.879,91.533,350.235,349.25199999999995,0.0
53821.0,STARLINK-4752,PAYLOAD,2023-01-23 08:16:29,15.73243354,5.58e-05,53.2162,353.776,154.9809,205.1238,0.00027593,0.00038354,0.0,0 STARLINK-4752,1 53821U 22114D   23023.34478169  .00038354  00000-0  27593-3 0  9993,2 53821  53.2162 353.7760 0000558 154.9809 205.1238 15.73243354 20454,6727.772,91.531,350.01199999999994,349.261,0.0
53821.0,STARLINK-4752,PAYLOAD,2023-01-24 04:05:43,15.7325227,0.0001049,53.2161,349.6868,95.388,264.7259,0.00028643,0.00039859,0.0,0 STARLINK-4752,1 53821U 22114D   23024.17064507  .00039859  00000-0  28643-3 0  9990,2 53821  53.2161 349.6868 0001049  95.3880 264.7259 15.73252270 20584,6727.746,91.53,350.31699999999995,348.905,0.0
53821.0,STARLINK-4752,PAYLOAD,2023-01-24 14:46:05,15.73210081,0.0001022999999999,53.2163,347.4872,112.4637,247.6492,7.0141e-05,9.239e-05,0.0,0 STARLINK-4752,1 53821U 22114D   23024.61534534  .00009239  00000-0  70141-4 0  9991,2 53821  53.2163 347.4872 0001023 112.4637 247.6492 15.73210081 20651,6727.866,91.533,350.42,349.043,0.0
53821.0,STARLINK-4752,PAYLOAD,2023-01-25 07:32:21,15.73238275,0.0002869,53.2166,344.0276,153.8203,206.2963,0.00016962,0.00023291,0.0,0 STARLINK-4752,1 53821U 22114D   23025.31414302  .00023291  00000-0  16962-3 0  9993,2 53821  53.2166 344.0276 0002869 153.8203 206.2963 15.73238275 20763,6727.786,91.531,351.581,347.721,0.0
53821.0,STARLINK-4752,PAYLOAD,2023-01-26 03:21:36,15.73237434,0.0001574,53.2158,339.9412,128.3194,231.7968,0.00019289,0.0002658,0.0,0 STARLINK-4752,1 53821U 22114D   23026.14001146  .00026580  00000-0  19289-3 0  9992,2 53821  53.2158 339.9412 0001574 128.3194 231.7968 15.73237434 20895,6727.7880000000005,91.531,350.712,348.594,0.0
53821.0,STARLINK-4752,PAYLOAD,2023-01-27 05:16:47,15.73200906,9.75e-05,53.2159,334.5986,90.3822,269.731,3.4352e-05,4.204e-05,0.0,0 STARLINK-4752,1 53821U 22114D   23027.21998847  .00004204  00000-0  34352-4 0  9992,2 53821  53.2159 334.5986 0000975  90.3822 269.7310 15.73200906 21069,6727.893,91.533,350.414,349.102,0.0
53821.0,STARLINK-4752,PAYLOAD,2023-01-27 06:48:15,15.732010999999998,0.0001007,53.2159,334.2842,99.1578,260.9556,4.1578e-05,5.22e-05,0.0,0 STARLINK-4752,1 53821U 22114D   23027.28351585  .00005220  00000-0  41578-4 0  9998,2 53821  53.2159 334.2842 0001007  99.1578 260.9556 15.73201100 21623,6727.892,91.533,350.435,349.08,0.0
53821.0,STARLINK-4752,PAYLOAD,2023-01-28 05:40:27,15.73233116,7.7e-05,53.215,329.5686,111.6799,248.4304,0.00019631,0.00027058,0.0,0 STARLINK-4752,1 53821U 22114D   23028.23643219  .00027058  00000-0  19631-3 0  9999,2 53821  53.2150 329.5686 0000770 111.6799 248.4304 15.73233116 21228,6727.801,91.531,350.184,349.148,0.0
53821.0,STARLINK-4752,PAYLOAD,2023-01-29 06:04:08,15.73224282,8.46e-05,53.2148,324.5374,81.3041,278.8075,0.00014406,0.00019666,0.0,0 STARLINK-4752,1 53821U 22114D   23029.25288002  .00019666  00000-0  14406-3 0  9998,2 53821  53.2148 324.5374 0000846  81.3041 278.8075 15.73224282 21384,6727.826,91.532,350.26,349.122,0.0
53821.0,STARLINK-4752,PAYLOAD,2023-01-30 04:56:20,15.73206278,7.86e-05,53.2144,319.823,94.0937,266.0173,1.9915e-05,2.177e-05,0.0,0 STARLINK-4752,1 53821U 22114D   23030.20579651  .00002177  00000-0  19915-4 0  9998,2 53821  53.2144 319.8230 0000786  94.0937 266.0173 15.73206278 21536,6727.877,91.533,350.271,349.213,0.0
53821.0,STARLINK-4752,PAYLOAD,2023-01-31 05:20:01,15.73222812,0.0001208,53.2151,314.791,104.8476,255.2678,0.00015425,0.00021103,0.0,0 STARLINK-4752,1 53821U 22114D   23031.22224529  .00021103  00000-0  15425-3 0  9993,2 53821  53.2151 314.7910 0001208 104.8476 255.2678 15.73222812 21690,6727.83,91.532,350.508,348.882,0.0
53821.0,STARLINK-4752,PAYLOAD,2023-02-01 04:12:14,15.73217689,0.0002112,53.2152,310.0762,78.3653,281.7604,0.00013074,0.00017781,0.0,0 STARLINK-4752,1 53821U 22114D   23032.17517222  .00017781  00000-0  13074-3 0  9998,2 53821  53.2152 310.0762 0002112  78.3653 281.7604 15.73217689 21848,6727.845,91.532,351.131,348.289,0.0
53821.0,STARLINK-4752,PAYLOAD,2023-02-02 03:04:27,15.73237085,7.27e-05,53.2156,305.3608,124.848,235.2608,0.00028264,0.00039295,0.0,0 STARLINK-4752,1 53821U 22114D   23033.12809176  .00039295  00000-0  28264-3 0  9997,2 53821  53.2156 305.3608 0000727 124.8480 235.2608 15.73237085 21999,6727.789,91.531,350.144,349.165,0.0
53821.0,STARLINK-4752,PAYLOAD,2023-02-03 00:25:09,15.73235097,9.42e-05,53.2147,300.9599,108.5363,251.5759,6.788e-05,8.931e-05,0.0,0 STARLINK-4752,1 53821U 22114D   23034.01746979  .00008931  00000-0  67880-4 0  9998,2 53821  53.2147 300.9599 0000942 108.5363 251.5759 15.73235097 22133,6727.795,91.531,350.294,349.026,0.0
53821.0,STARLINK-4752,PAYLOAD,2023-02-03 03:28:06,15.73232341,2.62e-05,53.2157,300.3313,111.8505,248.2543,6.3786e-05,8.354e-05,0.0,0 STARLINK-4752,1 53821U 22114D   23034.14452395  .00008354  00000-0  63786-4 0  9998,2 53821  53.2157 300.3313 0000262 111.8505 248.2543 15.73232341 22708,6727.803,91.531,349.844,349.492,0.0
53821.0,STARLINK-4752,PAYLOAD,2023-02-04 22:09:33,15.73204441,0.0001026,53.215,291.5294,95.62,264.4938,1.2668e-05,1.159e-05,0.0,0 STARLINK-4752,1 53821U 22114D   23035.92330911  .00001159  00000-0  12668-4 0  9993,2 53821  53.2150 291.5294 0001026  95.6200 264.4938 15.73204441 22988,6727.883,91.533,350.438,349.057,0.0
53821.0,STARLINK-4752,PAYLOAD,2023-02-04 23:41:02,15.73205993,9.89e-05,53.2152,291.2148,96.4173,263.696,1.3435e-05,1.267e-05,0.0,0 STARLINK-4752,1 53821U 22114D   23035.98683683  .00001267  00000-0  13435-4 0  9999,2 53821  53.2152 291.2148 0000989  96.4173 263.6960 15.73205993 22440,6727.878,91.533,350.408,349.078,0.0
53821.0,STARLINK-4752,PAYLOAD,2023-02-05 02:43:59,15.73220254,9.97e-05,53.2149,290.5844,100.2025,259.9107,-3.161e-05,-5.057e-05,0.0,0 STARLINK-4752,1 53821U 22114D   23036.11388496 -.00005057  00000-0 -31610-4 0  9997,2 53821  53.2149 290.5844 0000997 100.2025 259.9107 15.73220254 22460,6727.837,91.532,350.373,349.032,0.0
53821.0,STARLINK-4752,PAYLOAD,2023-02-05 22:33:14,15.73220662,0.0001185,53.2153,286.4977,108.3491,251.7658,4.5413e-05,5.763e-05,0.0,0 STARLINK-4752,1 53821U 22114D   23036.93975051  .00005763  00000-0  45413-4 0  9994,2 53821  53.2153 286.4977 0001185 108.3491 251.7658 15.73220662 23142,6727.836,91.532,350.499,348.904,0.0
53821.0,STARLINK-4752,PAYLOAD,2023-02-06 12:16:33,15.73209635,8.16e-05,53.2147,283.6675,104.7029,255.4082,1.5661e-05,1.58e-05,0.0,0 STARLINK-4752,1 53821U 22114D   23037.51150295  .00001580  00000-0  15661-4 0  9999,2 53821  53.2147 283.6675 0000816 104.7029 255.4082 15.73209635 23235,6727.868,91.533,350.282,349.184,0.0
53821.0,STARLINK-4752,PAYLOAD,2023-02-06 21:25:27,15.73197605,0.0001059,53.2153,281.7809,93.2352,266.8789,-1.1216e-05,-2.193e-05,0.0,0 STARLINK-4752,1 53821U 22114D   23037.89267521 -.00002193  00000-0 -11216-4 0  9996,2 53821  53.2153 281.7809 0001059  93.2352 266.8789 15.73197605 22749,6727.902,91.533,350.479,349.055,0.0
53821.0,STARLINK-4752,PAYLOAD,2023-02-07 01:59:52,15.73214485,0.0001024,53.215,280.8379,81.0021,279.1115,1.6703e-05,1.726e-05,0.0,0 STARLINK-4752,1 53821U 22114D   23038.08325102  .00001726  00000-0  16703-4 0  9993,2 53821  53.2150 280.8379 0001024  81.0021 279.1115 15.73214485 22777,6727.854,91.532,350.408,349.03,0.0
53821.0,STARLINK-4752,PAYLOAD,2023-02-07 11:08:46,15.73199154,8.94e-05,53.2152,278.9537,93.8405,266.2717,-5.4757e-06,-1.387e-05,0.0,0 STARLINK-4752,1 53821U 22114D   23038.46442601 -.00001387  00000-0 -54757-5 0  9996,2 53821  53.2152 278.9537 0000894  93.8405 266.2717 15.73199154 22831,6727.898,91.533,350.364,349.161,0.0
53821.0,STARLINK-4752,PAYLOAD,2023-02-07 21:49:08,15.73200424,0.000128,53.2144,276.7539,80.5631,279.5534,-2.8284e-05,-4.587e-05,0.0,0 STARLINK-4752,1 53821U 22114D   23038.90912293 -.00004587  00000-0 -28284-4 0  9994,2 53821  53.2144 276.7539 0001280  80.5631 279.5534 15.73200424 23450,6727.894,91.533,350.62,348.898,0.0
53821.0,STARLINK-4752,PAYLOAD,2023-02-08 11:32:27,15.73206057,9.82e-05,53.215,273.9228,134.087,226.0231,1.2805e-05,1.178e-05,0.0,0 STARLINK-4752,1 53821U 22114D   23039.48086972  .00001178  00000-0  12805-4 0  9997,2 53821  53.2150 273.9228 0000982 134.0870 226.0231 15.73206057 22996,6727.878,91.533,350.404,349.082,0.0
53821.0,STARLINK-4752,PAYLOAD,2023-02-08 19:09:50,15.73220936,0.000156,53.2139,272.3511,129.5045,230.6113,1.1026e-05,9.28e-06,0.0,0 STARLINK-4752,1 53821U 22114D   23039.79850104  .00000928  00000-0  11026-4 0  9993,2 53821  53.2139 272.3511 0001560 129.5045 230.6113 15.73220936 23046,6727.835,91.532,350.75,348.651,0.0
